[{"OBJECT_NAME":"TEVEL2-1","OBJECT_ID":"2025-052H","EPOCH":"2026-03-09T15:32:51.927072","MEAN_MOTION":15.30341923,"ECCENTRICITY":0.0004767,"INCLINATION":97.3991,"RA_OF_ASC_NODE":324.7682,"ARG_OF_PERICENTER":104.8919,"MEAN_ANOMALY":255.2849,"EPHEMERIS_TYPE":0,"CLASSIFICATION_TYPE":"U","NORAD_CAT_ID":63217,"ELEMENT_SET_NO":999,"REV_AT_EPOCH":5485,"BSTAR":0.000706,"MEAN_MOTION_DOT":0.00020683,"MEAN_MOTION_DDOT":0},{"OBJECT_NAME":"STARLINK-33841","OBJECT_ID":"2025-089W","EPOCH":"2026-03-09T23:32:26.252160","MEAN_MOTION":15.27586941,"ECCENTRICITY":8.396e-5,"INCLINATION":43.0011,"RA_OF_ASC_NODE":43.4506,"ARG_OF_PERICENTER":213.5475,"MEAN_ANOMALY":146.5324,"EPHEMERIS_TYPE":0,"CLASSIFICATION_TYPE":"U","NORAD_CAT_ID":63771,"ELEMENT_SET_NO":999,"REV_AT_EPOCH":4895,"BSTAR":0.00088781563,"MEAN_MOTION_DOT":0.00024254,"MEAN_MOTION_DDOT":0}]
